NORAD_CAT_ID,OBJECT_NAME,OBJECT_TYPE,EPOCH,MEAN_MOTION,ECCENTRICITY,INCLINATION,RA_OF_ASC_NODE,ARG_OF_PERICENTER,MEAN_ANOMALY,BSTAR,MEAN_MOTION_DOT,MEAN_MOTION_DDOT,TLE_LINE0,TLE_LINE1,TLE_LINE2,SEMIMAJOR_AXIS,PERIOD,APOGEE,PERIGEE,DECAYED
51890.0,STARLINK-3519,PAYLOAD,2023-11-06 01:30:58,15.09701839,0.0001861,53.2203,234.3654,98.5979,261.5224,0.00028734,4.395e-05,0.0,0 STARLINK-3519,1 51890U 22022AQ  23310.06318031  .00004395  00000-0  28734-3 0  9990,2 51890  53.2203 234.3654 0001861  98.5979 261.5224 15.09701839 94244,6915.247,95.383,538.399,535.825,0.0
51890.0,STARLINK-3519,PAYLOAD,2023-11-06 04:41:37,15.09716405,0.000139,53.2184,233.7713,92.3562,267.759,0.00041969,6.558e-05,0.0,0 STARLINK-3519,1 51890U 22022AQ  23310.19557009  .00006558  00000-0  41969-3 0  9992,2 51890  53.2184 233.7713 0001390  92.3562 267.7590 15.09716405 94269,6915.203,95.382,538.029,536.107,0.0
51890.0,STARLINK-3519,PAYLOAD,2023-11-06 12:38:16,15.09720174,0.0001445,53.2194,232.2833,98.8678,261.2478,0.00044315,6.942e-05,0.0,0 STARLINK-3519,1 51890U 22022AQ  23310.52657509  .00006942  00000-0  44315-3 0  9990,2 51890  53.2194 232.2833 0001445  98.8678 261.2478 15.09720174 94315,6915.191,95.382,538.056,536.057,0.0
51890.0,STARLINK-3519,PAYLOAD,2023-11-06 22:10:15,15.09718487,0.0001434,53.2201,230.4968,111.651,248.4635,0.00040455,6.311e-05,0.0,0 STARLINK-3519,1 51890U 22022AQ  23310.92378642  .00006311  00000-0  40455-3 0  9993,2 51890  53.2201 230.4968 0001434 111.6510 248.4635 15.09718487 94372,6915.197,95.382,538.053,536.07,0.0
51890.0,STARLINK-3519,PAYLOAD,2023-11-07 02:56:15,15.0971581,0.0001438,53.2181,229.6055,95.5738,264.5419,0.00015051,2.164e-05,0.0,0 STARLINK-3519,1 51890U 22022AQ  23311.12240275  .00002164  00000-0  15051-3 0  9992,2 51890  53.2181 229.6055 0001438  95.5738 264.5419 15.09715810 94402,6915.205,95.382,538.064,536.075,0.0
51890.0,STARLINK-3519,PAYLOAD,2023-11-07 06:06:55,15.09707301,0.0001304,53.2178,229.0102,91.2454,268.8688,6.594e-05,7.85e-06,0.0,0 STARLINK-3519,1 51890U 22022AQ  23311.25481346  .00000785  00000-0  65940-4 0  9992,2 51890  53.2178 229.0102 0001304  91.2454 268.8688 15.09707301 94428,6915.231,95.383,537.997,536.194,0.0
51890.0,STARLINK-3519,PAYLOAD,2023-11-07 18:49:37,15.09672428,0.000136,53.2178,226.6295,93.6465,266.4683,-0.00035047,-5.992e-05,0.0,0 STARLINK-3519,1 51890U 22022AQ  23311.78446715 -.00005992  00000-0 -35047-3 0  9992,2 51890  53.2178 226.6295 0001360  93.6465 266.4683 15.09672428 94503,6915.337,95.385,538.143,536.262,0.0
51890.0,STARLINK-3519,PAYLOAD,2023-11-08 02:46:18,15.09668546,0.000126,53.2177,225.1421,97.81,262.3036,-0.00058393,-9.784e-05,0.0,0 STARLINK-3519,1 51890U 22022AQ  23312.11549377 -.00009784  00000-0 -58393-3 0  9990,2 51890  53.2177 225.1421 0001260  97.8100 262.3036 15.09668546 94556,6915.349,95.385,538.085,536.343,0.0
51890.0,STARLINK-3519,PAYLOAD,2023-11-08 13:53:38,15.09664217,0.0001325,53.2175,223.0596,93.3654,266.749,-0.00057548,-9.646e-05,0.0,0 STARLINK-3519,1 51890U 22022AQ  23312.57892051 -.00009646  00000-0 -57548-3 0  9998,2 51890  53.2175 223.0596 0001325  93.3654 266.7490 15.09664217 94622,6915.362,95.385,538.144,536.311,0.0
51890.0,STARLINK-3519,PAYLOAD,2023-11-08 21:50:19,15.0964942,0.0001207,53.2175,221.5712,98.5475,261.5654,-0.00050234,-8.455e-05,0.0,0 STARLINK-3519,1 51890U 22022AQ  23312.90994698 -.00008455  00000-0 -50234-3 0  9997,2 51890  53.2175 221.5712 0001207  98.5475 261.5654 15.09649420 94671,6915.407,95.386,538.107,536.438,0.0
51890.0,STARLINK-3519,PAYLOAD,2023-11-09 01:00:59,15.09646028,0.0001222,53.2175,220.9759,98.7446,261.3685,-0.00051057,-8.588e-05,0.0,0 STARLINK-3519,1 51890U 22022AQ  23313.04235816 -.00008588  00000-0 -51057-3 0  9994,2 51890  53.2175 220.9759 0001222  98.7446 261.3685 15.09646028 94697,6915.418,95.387,538.128,536.438,0.0
51890.0,STARLINK-3519,PAYLOAD,2023-11-09 21:40:21,15.09596052,0.0001505,53.2174,217.1077,105.1461,254.9698,0.00024589,3.707e-05,0.0,0 STARLINK-3519,1 51890U 22022AQ  23313.90303003  .00003707  00000-0  24589-3 0  9999,2 51890  53.2174 217.1077 0001505 105.1461 254.9698 15.09596052 94829,6915.57,95.39,538.476,536.395,0.0
51890.0,STARLINK-3519,PAYLOAD,2023-11-10 02:26:21,15.09619978,0.0001305,53.2174,216.2151,98.0575,262.0566,-9.3815e-06,-4.43e-06,0.0,0 STARLINK-3519,1 51890U 22022AQ  23314.10164132 -.00000443  00000-0 -93815-5 0  9996,2 51890  53.2174 216.2151 0001305  98.0575 262.0566 15.09619978 94856,6915.497,95.388,538.265,536.46,0.0
51890.0,STARLINK-3519,PAYLOAD,2023-11-10 10:23:02,15.09613905,0.0001238,53.2174,214.7271,94.9227,265.1907,8.2209e-05,1.047e-05,0.0,0 STARLINK-3519,1 51890U 22022AQ  23314.43267216  .00001047  00000-0  82209-4 0  9992,2 51890  53.2174 214.7271 0001238  94.9227 265.1907 15.09613905 94909,6915.516,95.389,538.237,536.525,0.0
51890.0,STARLINK-3519,PAYLOAD,2023-11-11 10:13:04,15.09623488,0.0001278,53.2174,210.2642,95.9114,264.2024,0.00012164,1.688e-05,0.0,0 STARLINK-3519,1 51890U 22022AQ  23315.42575202  .00001688  00000-0  12164-3 0  9992,2 51890  53.2174 210.2642 0001278  95.9114 264.2024 15.09623488 95056,6915.487,95.388,538.235,536.468,0.0
51890.0,STARLINK-3519,PAYLOAD,2023-11-11 21:20:25,15.09627966,0.0001272,53.2174,208.1814,96.2143,263.8995,9.9384e-05,1.327e-05,0.0,0 STARLINK-3519,1 51890U 22022AQ  23315.88918792  .00001327  00000-0  99384-4 0  9997,2 51890  53.2174 208.1814 0001272  96.2143 263.8995 15.09627966 95128,6915.473,95.388,538.218,536.458,0.0
51890.0,STARLINK-3519,PAYLOAD,2023-11-12 10:03:06,15.0963338,0.0001307,53.2176,205.8004,90.953,269.1612,0.00011435,1.57e-05,0.0,0 STARLINK-3519,1 51890U 22022AQ  23316.41882639  .00001570  00000-0  11435-3 0  9997,2 51890  53.2176 205.8004 0001307  90.9530 269.1612 15.09633380 95206,6915.456,95.387,538.225,536.418,0.0
51890.0,STARLINK-3519,PAYLOAD,2023-11-12 21:10:26,15.0964403,0.0001322,53.2176,203.717,89.9846,270.1298,0.00014716,2.105e-05,0.0,0 STARLINK-3519,1 51890U 22022AQ  23316.88225315  .00002105  00000-0  14716-3 0  9990,2 51890  53.2176 203.7170 0001322  89.9846 270.1298 15.09644030 95275,6915.424,95.387,538.203,536.375,0.0
51890.0,STARLINK-3519,PAYLOAD,2023-11-13 01:56:26,15.09652297,0.0001385,53.2176,202.8241,90.008,270.1071,0.00017964,2.634e-05,0.0,0 STARLINK-3519,1 51890U 22022AQ  23317.08086097  .00002634  00000-0  17964-3 0  9990,2 51890  53.2176 202.8241 0001385  90.0080 270.1071 15.09652297 95303,6915.399,95.386,538.221,536.306,0.0
51890.0,STARLINK-3519,PAYLOAD,2023-11-13 09:53:07,15.09647225,0.0001402,53.2174,201.336,89.8462,270.2691,0.00013169,1.853e-05,0.0,0 STARLINK-3519,1 51890U 22022AQ  23317.41188839  .00001853  00000-0  13169-3 0  9999,2 51890  53.2174 201.3360 0001402  89.8462 270.2691 15.09647225 95356,6915.414,95.387,538.249,536.31,0.0
51890.0,STARLINK-3519,PAYLOAD,2023-11-14 09:43:07,15.09652391,0.0001391,53.2175,196.8717,90.7334,269.3818,8.0703e-05,1.023e-05,0.0,0 STARLINK-3519,1 51890U 22022AQ  23318.40495300  .00001023  00000-0  80703-4 0  9991,2 51890  53.2175 196.8717 0001391  90.7334 269.3818 15.09652391 95504,6915.398,95.386,538.225,536.301,0.0
51890.0,STARLINK-3519,PAYLOAD,2023-11-14 22:25:49,15.09646033,0.0001478,53.2168,194.4931,88.7278,271.3884,-2.6098e-05,-7.15e-06,0.0,0 STARLINK-3519,1 51890U 22022AQ  23318.93459655 -.00000715  00000-0 -26098-4 0  9998,2 51890  53.2168 194.4931 0001478  88.7278 271.3884 15.09646033 95588,6915.418,95.387,538.305,536.261,0.0
51890.0,STARLINK-3519,PAYLOAD,2023-11-15 22:15:49,15.09655358,0.000198,53.2178,190.0274,90.5543,269.5676,9.832e-06,-1.31e-06,0.0,0 STARLINK-3519,1 51890U 22022AQ  23319.92765758 -.00000131  00000-0  98320-5 0  9991,2 51890  53.2178 190.0274 0001980  90.5543 269.5676 15.09655358 95730,6915.389,95.386,538.624,535.885,0.0
51890.0,STARLINK-3519,PAYLOAD,2023-11-16 01:26:29,15.09656553,0.000154,53.2172,189.432,91.7947,268.3222,5.2501e-05,5.64e-06,0.0,0 STARLINK-3519,1 51890U 22022AQ  23320.06006179  .00000564  00000-0  52501-4 0  9992,2 51890  53.2172 189.4320 0001540  91.7947 268.3222 15.09656553 95755,6915.386,95.386,538.316,536.186,0.0
51890.0,STARLINK-3519,PAYLOAD,2023-11-16 15:44:28,15.09671629,0.0001447,53.2167,186.755,90.1188,269.9971,7.3952e-05,9.14e-06,0.0,0 STARLINK-3519,1 51890U 22022AQ  23320.65588606  .00000914  00000-0  73952-4 0  9999,2 51890  53.2167 186.7550 0001447  90.1188 269.9971 15.09671629 95849,6915.34,95.385,538.205,536.204,0.0
51890.0,STARLINK-3519,PAYLOAD,2023-11-16 22:05:49,15.09656028,0.0001281,53.2167,185.5626,94.1095,266.0044,9.4016e-05,1.24e-05,0.0,0 STARLINK-3519,1 51890U 22022AQ  23320.92071099  .00001240  00000-0  94016-4 0  9999,2 51890  53.2167 185.5626 0001281  94.1095 266.0044 15.09656028 95886,6915.387,95.386,538.138,536.366,0.0
51890.0,STARLINK-3519,PAYLOAD,2023-11-17 13:59:10,15.0964651,0.0001071,53.2195,182.5899,91.5212,268.5903,8.5426e-05,1.1e-05,0.0,0 STARLINK-3519,1 51890U 22022AQ  23321.58275709  .00001100  00000-0  85426-4 0  9996,2 51890  53.2195 182.5899 0001071  91.5212 268.5903 15.09646510 95982,6915.416,95.387,538.022,536.541,0.0
51890.0,STARLINK-3519,PAYLOAD,2023-11-17 21:55:50,15.09637281,0.0001204,53.219,181.102,92.6019,267.5111,0.00020784,3.092e-05,0.0,0 STARLINK-3519,1 51890U 22022AQ  23321.91378004  .00003092  00000-0  20784-3 0  9992,2 51890  53.2190 181.1020 0001204  92.6019 267.5111 15.09637281 96035,6915.444,95.387,538.142,536.477,0.0
51890.0,STARLINK-3519,PAYLOAD,2023-11-18 07:27:50,15.09662388,0.0001407,53.2191,179.3166,94.1675,265.9478,-6.9169e-05,-1.416e-05,0.0,0 STARLINK-3519,1 51890U 22022AQ  23322.31099994 -.00001416  00000-0 -69169-4 0  9996,2 51890  53.2191 179.3166 0001407  94.1675 265.9478 15.09662388 96096,6915.368,95.386,538.206,536.26,0.0
51890.0,STARLINK-3519,PAYLOAD,2023-11-18 13:49:10,15.09661626,0.0001364,53.2197,178.127,97.4093,262.7055,-5.23e-05,-1.141e-05,0.0,0 STARLINK-3519,1 51890U 22022AQ  23322.57581518 -.00001141  00000-0 -52300-4 0  9996,2 51890  53.2197 178.1270 0001364  97.4093 262.7055 15.09661626 96132,6915.37,95.386,538.178,536.292,0.0
